[{"OBJECT_NAME":"TRANSPORTER-12 OBJECT F","OBJECT_ID":"2025-009F","EPOCH":"2026-03-09T18:25:14.947104","MEAN_MOTION":15.73813521,"ECCENTRICITY":0.00060767,"INCLINATION":97.386,"RA_OF_ASC_NODE":159.0379,"ARG_OF_PERICENTER":265.786,"MEAN_ANOMALY":94.271,"EPHEMERIS_TYPE":0,"CLASSIFICATION_TYPE":"U","NORAD_CAT_ID":62614,"ELEMENT_SET_NO":999,"REV_AT_EPOCH":6425,"BSTAR":0.0022214492,"MEAN_MOTION_DOT":0.00324599,"MEAN_MOTION_DDOT":0},{"OBJECT_NAME":"STARLINK-36563","OBJECT_ID":"2026-014U","EPOCH":"2026-03-09T15:11:35.932992","MEAN_MOTION":15.75313207,"ECCENTRICITY":0.0001313,"INCLINATION":97.2836,"RA_OF_ASC_NODE":313.5488,"ARG_OF_PERICENTER":133.5968,"MEAN_ANOMALY":226.5406,"EPHEMERIS_TYPE":0,"CLASSIFICATION_TYPE":"U","NORAD_CAT_ID":67550,"ELEMENT_SET_NO":999,"REV_AT_EPOCH":856,"BSTAR":0.0022501,"MEAN_MOTION_DOT":0.00351557,"MEAN_MOTION_DDOT":0}]
