TRANSPORTER-12 OBJECT F 
1 62614U 25009F   26068.76753411  .00324599  00000+0  22214-2 0  9995
2 62614  97.3860 159.0379 0006077 265.7860  94.2710 15.73813521 64258
STARLINK-36563          
1 67550U 26014U   26068.63305478  .00351557  00000+0  22501-2 0  9991
2 67550  97.2836 313.5488 0001313 133.5968 226.5406 15.75313207  8563
